[
    {
        "ARG_OF_PERICENTER": 317.3674,
        "BSTAR": 0.00014551,
        "CLASSIFICATION_TYPE": "U",
        "ECCENTRICITY": 0.0008659,
        "ELEMENT_SET_NO": 999,
        "EPHEMERIS_TYPE": 0,
        "EPOCH": "2026-05-04T18:20:09.054816",
        "INCLINATION": 98.6751,
        "MEAN_ANOMALY": 42.6832,
        "MEAN_MOTION": 14.2430857,
        "MEAN_MOTION_DDOT": 0,
        "MEAN_MOTION_DOT": 2.92e-06,
        "NORAD_CAT_ID": 27844,
        "OBJECT_ID": "2003-031E",
        "OBJECT_NAME": "CUTE-1 (CO-55)",
        "RA_OF_ASC_NODE": 133.8676,
        "REV_AT_EPOCH": 18549
    },
    {
        "ARG_OF_PERICENTER": 338.3156,
        "BSTAR": 0.00011926002,
        "CLASSIFICATION_TYPE": "U",
        "ECCENTRICITY": 0.0008917,
        "ELEMENT_SET_NO": 999,
        "EPHEMERIS_TYPE": 0,
        "EPOCH": "2026-05-04T10:47:25.097856",
        "INCLINATION": 98.6784,
        "MEAN_ANOMALY": 21.7644,
        "MEAN_MOTION": 14.23597038,
        "MEAN_MOTION_DDOT": 0,
        "MEAN_MOTION_DOT": 2.28e-06,
        "NORAD_CAT_ID": 27848,
        "OBJECT_ID": "2003-031J",
        "OBJECT_NAME": "CUBESAT XI-IV (CO-57)",
        "RA_OF_ASC_NODE": 133.3051,
        "REV_AT_EPOCH": 18515
    },
    {
        "ARG_OF_PERICENTER": 348.3062,
        "BSTAR": 0.00022352,
        "CLASSIFICATION_TYPE": "U",
        "ECCENTRICITY": 0.0013659,
        "ELEMENT_SET_NO": 999,
        "EPHEMERIS_TYPE": 0,
        "EPOCH": "2026-05-04T20:20:00.244320",
        "INCLINATION": 98.2937,
        "MEAN_ANOMALY": 11.7825,
        "MEAN_MOTION": 14.72517288,
        "MEAN_MOTION_DDOT": 0,
        "MEAN_MOTION_DOT": 1.368e-05,
        "NORAD_CAT_ID": 28895,
        "OBJECT_ID": "2005-043F",
        "OBJECT_NAME": "CUBESAT XI-V",
        "RA_OF_ASC_NODE": 279.5744,
        "REV_AT_EPOCH": 9537
    },
    {
        "ARG_OF_PERICENTER": 165.5823,
        "BSTAR": 0.00036367,
        "CLASSIFICATION_TYPE": "U",
        "ECCENTRICITY": 0.0009274,
        "ELEMENT_SET_NO": 999,
        "EPHEMERIS_TYPE": 0,
        "EPOCH": "2026-05-04T21:19:14.534688",
        "INCLINATION": 97.8265,
        "MEAN_ANOMALY": 194.5671,
        "MEAN_MOTION": 15.09046129,
        "MEAN_MOTION_DDOT": 0,
        "MEAN_MOTION_DOT": 5.696e-05,
        "NORAD_CAT_ID": 32785,
        "OBJECT_ID": "2008-021C",
        "OBJECT_NAME": "CUTE-1.7+APD II (CO-65)",
        "RA_OF_ASC_NODE": 105.4276,
        "REV_AT_EPOCH": 97866
    },
    {
        "ARG_OF_PERICENTER": 182.3952,
        "BSTAR": 0.00031449,
        "CLASSIFICATION_TYPE": "U",
        "ECCENTRICITY": 0.0010242,
        "ELEMENT_SET_NO": 999,
        "EPHEMERIS_TYPE": 0,
        "EPOCH": "2026-05-04T21:15:05.014080",
        "INCLINATION": 97.8624,
        "MEAN_ANOMALY": 177.7227,
        "MEAN_MOTION": 15.05310923,
        "MEAN_MOTION_DDOT": 0,
        "MEAN_MOTION_DOT": 4.44e-05,
        "NORAD_CAT_ID": 32790,
        "OBJECT_ID": "2008-021H",
        "OBJECT_NAME": "CANX-2",
        "RA_OF_ASC_NODE": 103.8398,
        "REV_AT_EPOCH": 97829
    },
    {
        "ARG_OF_PERICENTER": 101.3159,
        "BSTAR": 0.00059676,
        "CLASSIFICATION_TYPE": "U",
        "ECCENTRICITY": 0.0005135,
        "ELEMENT_SET_NO": 999,
        "EPHEMERIS_TYPE": 0,
        "EPOCH": "2026-05-04T12:05:00.873312",
        "INCLINATION": 97.7526,
        "MEAN_ANOMALY": 258.8659,
        "MEAN_MOTION": 15.31272851,
        "MEAN_MOTION_DDOT": 0,
        "MEAN_MOTION_DOT": 0.00017973,
        "NORAD_CAT_ID": 32791,
        "OBJECT_ID": "2008-021J",
        "OBJECT_NAME": "SEEDS II (CO-66)",
        "RA_OF_ASC_NODE": 120.3709,
        "REV_AT_EPOCH": 98060
    },
    {
        "ARG_OF_PERICENTER": 0.217,
        "BSTAR": 0.00022389,
        "CLASSIFICATION_TYPE": "U",
        "ECCENTRICITY": 0.0006824,
        "ELEMENT_SET_NO": 999,
        "EPHEMERIS_TYPE": 0,
        "EPOCH": "2026-05-04T15:41:35.450592",
        "INCLINATION": 98.4062,
        "MEAN_ANOMALY": 359.9032,
        "MEAN_MOTION": 14.62396514,
        "MEAN_MOTION_DDOT": 0,
        "MEAN_MOTION_DOT": 1.083e-05,
        "NORAD_CAT_ID": 35932,
        "OBJECT_ID": "2009-051B",
        "OBJECT_NAME": "SWISSCUBE",
        "RA_OF_ASC_NODE": 31.7816,
        "REV_AT_EPOCH": 88279
    },
    {
        "ARG_OF_PERICENTER": 17.9547,
        "BSTAR": 0.00017608772,
        "CLASSIFICATION_TYPE": "U",
        "ECCENTRICITY": 0.00056689,
        "ELEMENT_SET_NO": 999,
        "EPHEMERIS_TYPE": 0,
        "EPOCH": "2026-05-04T05:31:23.377152",
        "INCLINATION": 98.399,
        "MEAN_ANOMALY": 342.1853,
        "MEAN_MOTION": 14.61647174,
        "MEAN_MOTION_DDOT": 0,
        "MEAN_MOTION_DOT": 8.27e-06,
        "NORAD_CAT_ID": 35933,
        "OBJECT_ID": "2009-051C",
        "OBJECT_NAME": "BEESAT-1",
        "RA_OF_ASC_NODE": 31.0771,
        "REV_AT_EPOCH": 88276
    },
    {
        "ARG_OF_PERICENTER": 23.1324,
        "BSTAR": 0.00018239,
        "CLASSIFICATION_TYPE": "U",
        "ECCENTRICITY": 0.0008022,
        "ELEMENT_SET_NO": 999,
        "EPHEMERIS_TYPE": 0,
        "EPOCH": "2026-05-04T15:53:38.107968",
        "INCLINATION": 98.4075,
        "MEAN_ANOMALY": 337.0235,
        "MEAN_MOTION": 14.60374226,
        "MEAN_MOTION_DDOT": 0,
        "MEAN_MOTION_DOT": 8.34e-06,
        "NORAD_CAT_ID": 35935,
        "OBJECT_ID": "2009-051E",
        "OBJECT_NAME": "ITUPSAT1",
        "RA_OF_ASC_NODE": 30.7536,
        "REV_AT_EPOCH": 88238
    },
    {
        "ARG_OF_PERICENTER": 67.2169,
        "BSTAR": 0.00075544,
        "CLASSIFICATION_TYPE": "U",
        "ECCENTRICITY": 0.0004151,
        "ELEMENT_SET_NO": 999,
        "EPHEMERIS_TYPE": 0,
        "EPOCH": "2026-05-04T18:43:14.191104",
        "INCLINATION": 98.0698,
        "MEAN_ANOMALY": 292.9508,
        "MEAN_MOTION": 15.30080861,
        "MEAN_MOTION_DDOT": 0,
        "MEAN_MOTION_DOT": 0.00021953,
        "NORAD_CAT_ID": 36799,
        "OBJECT_ID": "2010-035E",
        "OBJECT_NAME": "TISAT 1",
        "RA_OF_ASC_NODE": 67.5462,
        "REV_AT_EPOCH": 86106
    },
    {
        "ARG_OF_PERICENTER": 216.1305,
        "BSTAR": 0.000962,
        "CLASSIFICATION_TYPE": "U",
        "ECCENTRICITY": 0.0021301,
        "ELEMENT_SET_NO": 999,
        "EPHEMERIS_TYPE": 0,
        "EPOCH": "2026-05-04T14:02:02.726592",
        "INCLINATION": 64.6304,
        "MEAN_ANOMALY": 143.841,
        "MEAN_MOTION": 15.75596955,
        "MEAN_MOTION_DDOT": 0,
        "MEAN_MOTION_DOT": 0.00152244,
        "NORAD_CAT_ID": 38767,
        "OBJECT_ID": "2012-048K",
        "OBJECT_NAME": "AEROCUBE 4.5A",
        "RA_OF_ASC_NODE": 183.6395,
        "REV_AT_EPOCH": 36575
    },
    {
        "ARG_OF_PERICENTER": 10.1432,
        "BSTAR": 0.00010846897,
        "CLASSIFICATION_TYPE": "U",
        "ECCENTRICITY": 0.00087367,
        "ELEMENT_SET_NO": 999,
        "EPHEMERIS_TYPE": 0,
        "EPOCH": "2026-05-04T11:20:15.046368",
        "INCLINATION": 98.3914,
        "MEAN_ANOMALY": 349.993,
        "MEAN_MOTION": 14.37137198,
        "MEAN_MOTION_DDOT": 0,
        "MEAN_MOTION_DOT": 2.8e-06,
        "NORAD_CAT_ID": 39090,
        "OBJECT_ID": "2013-009E",
        "OBJECT_NAME": "STRAND-1",
        "RA_OF_ASC_NODE": 305.7849,
        "REV_AT_EPOCH": 69078
    },
    {
        "ARG_OF_PERICENTER": 16.8187,
        "BSTAR": 7.6764e-05,
        "CLASSIFICATION_TYPE": "U",
        "ECCENTRICITY": 0.0010461,
        "ELEMENT_SET_NO": 999,
        "EPHEMERIS_TYPE": 0,
        "EPOCH": "2026-05-04T17:53:00.324096",
        "INCLINATION": 98.3986,
        "MEAN_ANOMALY": 343.3345,
        "MEAN_MOTION": 14.3652461,
        "MEAN_MOTION_DDOT": 0,
        "MEAN_MOTION_DOT": 1.83e-06,
        "NORAD_CAT_ID": 39091,
        "OBJECT_ID": "2013-009F",
        "OBJECT_NAME": "BRITE-AUSTRIA",
        "RA_OF_ASC_NODE": 305.2583,
        "REV_AT_EPOCH": 69081
    }
]