CUTE-1 (CO-55)          
1 27844U 03031E   26124.76399369  .00000292  00000+0  14551-3 0  9990
2 27844  98.6751 133.8676 0008659 317.3674  42.6832 14.24308570185492
CUBESAT XI-IV (CO-57)   
1 27848U 03031J   26124.44959604  .00000228  00000+0  11926-3 0  9995
2 27848  98.6784 133.3051 0008917 338.3156  21.7644 14.23597038185159
CUBESAT XI-V            
1 28895U 05043F   26124.84722505  .00001368  00000+0  22352-3 0  9996
2 28895  98.2937 279.5744 0013659 348.3062  11.7825 14.72517288 95373
CUTE-1.7+APD II (CO-65) 
1 32785U 08021C   26124.88836267  .00005696  00000+0  36367-3 0  9992
2 32785  97.8265 105.4276 0009274 165.5823 194.5671 15.09046129978667
CANX-2                  
1 32790U 08021H   26124.88547470  .00004440  00000+0  31449-3 0  9995
2 32790  97.8624 103.8398 0010242 182.3952 177.7227 15.05310923978297
SEEDS II (CO-66)        
1 32791U 08021J   26124.50348233  .00017973  00000+0  59676-3 0  9998
2 32791  97.7526 120.3709 0005135 101.3159 258.8659 15.31272851980607
SWISSCUBE               
1 35932U 09051B   26124.65388253  .00001083  00000+0  22389-3 0  9990
2 35932  98.4062  31.7816 0006824   0.2170 359.9032 14.62396514882795
BEESAT-1                
1 35933U 09051C   26124.23013168  .00000827  00000+0  17609-3 0  9999
2 35933  98.3990  31.0771 0005668  17.9547 342.1853 14.61647174882768
ITUPSAT1                
1 35935U 09051E   26124.66224662  .00000834  00000+0  18239-3 0  9999
2 35935  98.4075  30.7536 0008022  23.1324 337.0235 14.60374226882388
TISAT 1                 
1 36799U 10035E   26124.78002536  .00021953  00000+0  75544-3 0  9996
2 36799  98.0698  67.5462 0004151  67.2169 292.9508 15.30080861861066
AEROCUBE 4.5A           
1 38767U 12048K   26124.58475378  .00152244  00000+0  96200-3 0  9995
2 38767  64.6304 183.6395 0021301 216.1305 143.8410 15.75596955365750
STRAND-1                
1 39090U 13009E   26124.47239637  .00000280  00000+0  10847-3 0  9992
2 39090  98.3914 305.7849 0008736  10.1432 349.9930 14.37137198690789
BRITE-AUSTRIA           
1 39091U 13009F   26124.74514264  .00000183  00000+0  76764-4 0  9998
2 39091  98.3986 305.2583 0010461  16.8187 343.3345 14.36524610690817
